[{"OBJECT_NAME":"STARLINK-2763","OBJECT_ID":"2021-044AJ","EPOCH":"2026-03-09T22:24:35.647488","MEAN_MOTION":15.30180059,"ECCENTRICITY":0.00013123,"INCLINATION":53.1603,"RA_OF_ASC_NODE":103.0664,"ARG_OF_PERICENTER":86.0999,"MEAN_ANOMALY":274.0152,"EPHEMERIS_TYPE":0,"CLASSIFICATION_TYPE":"U","NORAD_CAT_ID":48670,"ELEMENT_SET_NO":999,"REV_AT_EPOCH":26399,"BSTAR":2.1771933e-5,"MEAN_MOTION_DOT":2.85e-6,"MEAN_MOTION_DDOT":0},{"OBJECT_NAME":"JILIN-1 GAOFEN 03D47","OBJECT_ID":"2022-167L","EPOCH":"2026-03-09T22:56:46.924224","MEAN_MOTION":15.31686941,"ECCENTRICITY":0.00089304,"INCLINATION":97.6835,"RA_OF_ASC_NODE":234.6581,"ARG_OF_PERICENTER":110.4031,"MEAN_ANOMALY":249.8169,"EPHEMERIS_TYPE":0,"CLASSIFICATION_TYPE":"U","NORAD_CAT_ID":54692,"ELEMENT_SET_NO":999,"REV_AT_EPOCH":18014,"BSTAR":0.00047294748,"MEAN_MOTION_DOT":0.00014417,"MEAN_MOTION_DDOT":0}]
